{
  "type": "FeatureCollection",
  "features": [
    {
      "type": "Feature",
      "properties": {
        "norad_id": 66541,
        "name": "STARLINK-35796",
        "group": "last-30-days",
        "lat": 16.436666774408813,
        "lon": 58.278634111598315,
        "alt_km": 443.455673660279,
        "timestamp": "2025-12-15T04:01:19.179406+00:00",
        "meta_object_name": "STARLINK-35796",
        "meta_object_id": "2025-265AB",
        "meta_epoch": "2025-12-14T06:00:02.999808",
        "meta_mean_motion": 15.43476424,
        "meta_eccentricity": 8.487e-05,
        "meta_inclination": 43.0002,
        "meta_ra_of_asc_node": 45.1189,
        "meta_arg_of_pericenter": 273.1235,
        "meta_mean_anomaly": 52.6815,
        "meta_ephemeris_type": 0,
        "meta_classification_type": "U",
        "meta_norad_cat_id": 66541,
        "meta_element_set_no": 999,
        "meta_rev_at_epoch": 523,
        "meta_bstar": -0.042276153,
        "meta_mean_motion_dot": -0.01753042,
        "meta_mean_motion_ddot": 0,
        "tle_line1": "1 66541U 25265AB  25348.25003472 -.01753042  00000+0 -42276-1 0  9992",
        "tle_line2": "2 66541  43.0002  45.1189 0000848 273.1235  52.6815 15.43476424  5231"
      },
      "geometry": {
        "type": "Point",
        "coordinates": [
          58.278634111598315,
          16.436666774408813
        ]
      }
    },
    {
      "type": "Feature",
      "properties": {
        "norad_id": 66542,
        "name": "STARLINK-35833",
        "group": "last-30-days",
        "lat": 41.42326867557532,
        "lon": 110.94006981752634,
        "alt_km": 408.40242938583833,
        "timestamp": "2025-12-15T04:01:19.179416+00:00",
        "meta_object_name": "STARLINK-35833",
        "meta_object_id": "2025-265AC",
        "meta_epoch": "2025-12-13T20:46:47.765568",
        "meta_mean_motion": 15.50597486,
        "meta_eccentricity": 0.0001633,
        "meta_inclination": 42.9989,
        "meta_ra_of_asc_node": 47.3121,
        "meta_arg_of_pericenter": 282.13,
        "meta_mean_anomaly": 77.9378,
        "meta_ephemeris_type": 0,
        "meta_classification_type": "U",
        "meta_norad_cat_id": 66542,
        "meta_element_set_no": 999,
        "meta_rev_at_epoch": 393,
        "meta_bstar": 0.0019500496,
        "meta_mean_motion_dot": 0.00115843,
        "meta_mean_motion_ddot": 0,
        "tle_line1": "1 66542U 25265AC  25347.86583062  .00115843  00000+0  19500-2 0  9990",
        "tle_line2": "2 66542  42.9989  47.3121 0001633 282.1300  77.9378 15.50597486  3939"
      },
      "geometry": {
        "type": "Point",
        "coordinates": [
          110.94006981752634,
          41.42326867557532
        ]
      }
    },
    {
      "type": "Feature",
      "properties": {
        "norad_id": 66543,
        "name": "STARLINK-35315",
        "group": "last-30-days",
        "lat": 41.74876056638495,
        "lon": 112.98156225437003,
        "alt_km": 408.6302884355737,
        "timestamp": "2025-12-15T04:01:19.179429+00:00",
        "meta_object_name": "STARLINK-35315",
        "meta_object_id": "2025-265AD",
        "meta_epoch": "2025-12-13T20:46:18.204672",
        "meta_mean_motion": 15.50578054,
        "meta_eccentricity": 0.00012545,
        "meta_inclination": 42.9997,
        "meta_ra_of_asc_node": 47.3094,
        "meta_arg_of_pericenter": 267.5322,
        "meta_mean_anomaly": 92.5394,
        "meta_ephemeris_type": 0,
        "meta_classification_type": "U",
        "meta_norad_cat_id": 66543,
        "meta_element_set_no": 999,
        "meta_rev_at_epoch": 393,
        "meta_bstar": 0.0012393516,
        "meta_mean_motion_dot": 0.00073044,
        "meta_mean_motion_ddot": 0,
        "tle_line1": "1 66543U 25265AD  25347.86548848  .00073044  00000+0  12394-2 0  9994",
        "tle_line2": "2 66543  42.9997  47.3094 0001254 267.5322  92.5394 15.50578054  3939"
      },
      "geometry": {
        "type": "Point",
        "coordinates": [
          112.98156225437003,
          41.74876056638495
        ]
      }
    },
    {
      "type": "Feature",
      "properties": {
        "norad_id": 66544,
        "name": "STARLINK-35728",
        "group": "last-30-days",
        "lat": 42.10111392571838,
        "lon": 115.55081517303941,
        "alt_km": 408.43658821843655,
        "timestamp": "2025-12-15T04:01:19.179439+00:00",
        "meta_object_name": "STARLINK-35728",
        "meta_object_id": "2025-265AE",
        "meta_epoch": "2025-12-14T04:29:36.065472",
        "meta_mean_motion": 15.50598,
        "meta_eccentricity": 0.0001302,
        "meta_inclination": 42.9989,
        "meta_ra_of_asc_node": 45.4216,
        "meta_arg_of_pericenter": 261.1276,
        "meta_mean_anomaly": 98.9437,
        "meta_ephemeris_type": 0,
        "meta_classification_type": "U",
        "meta_norad_cat_id": 66544,
        "meta_element_set_no": 999,
        "meta_rev_at_epoch": 398,
        "meta_bstar": 0.0020737352,
        "meta_mean_motion_dot": 0.00123332,
        "meta_mean_motion_ddot": 0,
        "tle_line1": "1 66544U 25265AE  25348.18722298  .00123332  00000+0  20737-2 0  9990",
        "tle_line2": "2 66544  42.9989  45.4216 0001302 261.1276  98.9437 15.50598000  3984"
      },
      "geometry": {
        "type": "Point",
        "coordinates": [
          115.55081517303941,
          42.10111392571838
        ]
      }
    },
    {
      "type": "Feature",
      "properties": {
        "norad_id": 66545,
        "name": "SHIJIAN-30A",
        "group": "last-30-days",
        "lat": -15.912812886738015,
        "lon": 154.46250544821203,
        "alt_km": 530.5589045048127,
        "timestamp": "2025-12-15T04:01:19.179449+00:00",
        "meta_object_name": "SHIJIAN-30A",
        "meta_object_id": "2025-266A",
        "meta_epoch": "2025-12-14T16:03:47.469888",
        "meta_mean_motion": 15.15499825,
        "meta_eccentricity": 0.0012881,
        "meta_inclination": 51.7981,
        "meta_ra_of_asc_node": 323.8228,
        "meta_arg_of_pericenter": 3.4113,
        "meta_mean_anomaly": 356.6949,
        "meta_ephemeris_type": 0,
        "meta_classification_type": "U",
        "meta_norad_cat_id": 66545,
        "meta_element_set_no": 999,
        "meta_rev_at_epoch": 387,
        "meta_bstar": 0.00055329,
        "meta_mean_motion_dot": 0.00010334,
        "meta_mean_motion_ddot": 0,
        "tle_line1": "1 66545U 25266A   25348.66929942  .00010334  00000+0  55329-3 0  9993",
        "tle_line2": "2 66545  51.7981 323.8228 0012881   3.4113 356.6949 15.15499825  3878"
      },
      "geometry": {
        "type": "Point",
        "coordinates": [
          154.46250544821203,
          -15.912812886738015
        ]
      }
    },
    {
      "type": "Feature",
      "properties": {
        "norad_id": 66546,
        "name": "SHIJIAN-30B",
        "group": "last-30-days",
        "lat": -10.95312127922142,
        "lon": 150.26419027368598,
        "alt_km": 528.8519552428115,
        "timestamp": "2025-12-15T04:01:19.179462+00:00",
        "meta_object_name": "SHIJIAN-30B",
        "meta_object_id": "2025-266B",
        "meta_epoch": "2025-12-14T16:05:29.027904",
        "meta_mean_motion": 15.15472464,
        "meta_eccentricity": 0.0010621,
        "meta_inclination": 51.7965,
        "meta_ra_of_asc_node": 323.8266,
        "meta_arg_of_pericenter": 6.7549,
        "meta_mean_anomaly": 353.3568,
        "meta_ephemeris_type": 0,
        "meta_classification_type": "U",
        "meta_norad_cat_id": 66546,
        "meta_element_set_no": 999,
        "meta_rev_at_epoch": 387,
        "meta_bstar": 0.00063956,
        "meta_mean_motion_dot": 0.0001198,
        "meta_mean_motion_ddot": 0,
        "tle_line1": "1 66546U 25266B   25348.67047486  .00011980  00000+0  63956-3 0  9992",
        "tle_line2": "2 66546  51.7965 323.8266 0010621   6.7549 353.3568 15.15472464  3873"
      },
      "geometry": {
        "type": "Point",
        "coordinates": [
          150.26419027368598,
          -10.95312127922142
        ]
      }
    },
    {
      "type": "Feature",
      "properties": {
        "norad_id": 66547,
        "name": "SHIJIAN-30C",
        "group": "last-30-days",
        "lat": -8.862205741224168,
        "lon": 148.55762118102993,
        "alt_km": 529.2566763513369,
        "timestamp": "2025-12-15T04:01:19.179472+00:00",
        "meta_object_name": "SHIJIAN-30C",
        "meta_object_id": "2025-266C",
        "meta_epoch": "2025-12-14T16:06:09.601344",
        "meta_mean_motion": 15.15421542,
        "meta_eccentricity": 0.0011477,
        "meta_inclination": 51.7975,
        "meta_ra_of_asc_node": 323.8314,
        "meta_arg_of_pericenter": 358.4064,
        "meta_mean_anomaly": 1.6873,
        "meta_ephemeris_type": 0,
        "meta_classification_type": "U",
        "meta_norad_cat_id": 66547,
        "meta_element_set_no": 999,
        "meta_rev_at_epoch": 387,
        "meta_bstar": 0.000569,
        "meta_mean_motion_dot": 0.00010608,
        "meta_mean_motion_ddot": 0,
        "tle_line1": "1 66547U 25266C   25348.67094446  .00010608  00000+0  56900-3 0  9998",
        "tle_line2": "2 66547  51.7975 323.8314 0011477 358.4064   1.6873 15.15421542  3871"
      },
      "geometry": {
        "type": "Point",
        "coordinates": [
          148.55762118102993,
          -8.862205741224168
        ]
      }
    }
  ]
}